{
  "type": "FeatureCollection",
  "name": "manual_settlement_boundaries",
  "features": [
    {
      "type": "Feature",
      "properties": {
        "id": "french_1",
        "label": "French Concession / 法租界",
        "source": "Manual drawing on docs/map.html using 1932 Japanese Shanghai map as reference",
        "status": "manual_draft"
      },
      "geometry": {
        "type": "Polygon",
        "coordinates": [
          [
            [
              121.487417,
              31.235005
            ],
            [
              121.483898,
              31.233629
            ],
            [
              121.482375,
              31.232859
            ],
            [
              121.478555,
              31.232859
            ],
            [
              121.474028,
              31.230749
            ],
            [
              121.471388,
              31.229097
            ],
            [
              121.464458,
              31.226198
            ],
            [
              121.462054,
              31.225538
            ],
            [
              121.4586,
              31.225795
            ],
            [
              121.452227,
              31.22596
            ],
            [
              121.444888,
              31.22374
            ],
            [
              121.441026,
              31.222713
            ],
            [
              121.441841,
              31.220181
            ],
            [
              121.439266,
              31.21886
            ],
            [
              121.435962,
              31.218346
            ],
            [
              121.434846,
              31.216327
            ],
            [
              121.434417,
              31.214749
            ],
            [
              121.432357,
              31.213207
            ],
            [
              121.429954,
              31.212914
            ],
            [
              121.428409,
              31.211262
            ],
            [
              121.429868,
              31.205353
            ],
            [
              121.430769,
              31.204178
            ],
            [
              121.432185,
              31.200104
            ],
            [
              121.434073,
              31.195625
            ],
            [
              121.440296,
              31.199112
            ],
            [
              121.445832,
              31.201498
            ],
            [
              121.456261,
              31.204802
            ],
            [
              121.459994,
              31.205316
            ],
            [
              121.462998,
              31.207041
            ],
            [
              121.466475,
              31.207775
            ],
            [
              121.468406,
              31.210381
            ],
            [
              121.474607,
              31.21194
            ],
            [
              121.477418,
              31.213316
            ],
            [
              121.476592,
              31.215858
            ],
            [
              121.476077,
              31.218271
            ],
            [
              121.478308,
              31.219096
            ],
            [
              121.478791,
              31.219436
            ],
            [
              121.479349,
              31.21939
            ],
            [
              121.477236,
              31.222831
            ],
            [
              121.479188,
              31.223666
            ],
            [
              121.478319,
              31.227116
            ],
            [
              121.48025,
              31.229997
            ],
            [
              121.482697,
              31.230914
            ],
            [
              121.486237,
              31.231446
            ],
            [
              121.489627,
              31.231354
            ],
            [
              121.490529,
              31.230932
            ],
            [
              121.490936,
              31.230088
            ],
            [
              121.492138,
              31.229116
            ],
            [
              121.493082,
              31.226968
            ],
            [
              121.495582,
              31.227556
            ],
            [
              121.493876,
              31.229299
            ],
            [
              121.491323,
              31.231528
            ],
            [
              121.487417,
              31.235023
            ],
            [
              121.487417,
              31.235005
            ]
          ]
        ]
      }
    },
    {
      "type": "Feature",
      "properties": {
        "id": "international_2",
        "label": "International Settlement / 公共租界",
        "source": "Manual drawing on docs/map.html using 1932 Japanese Shanghai map as reference",
        "status": "manual_draft"
      },
      "geometry": {
        "type": "Polygon",
        "coordinates": [
          [
            [
              121.467762,
              31.242088
            ],
            [
              121.465445,
              31.240951
            ],
            [
              121.461411,
              31.242822
            ],
            [
              121.458406,
              31.243299
            ],
            [
              121.456604,
              31.242602
            ],
            [
              121.454244,
              31.239997
            ],
            [
              121.45257,
              31.239997
            ],
            [
              121.448622,
              31.243042
            ],
            [
              121.443686,
              31.246601
            ],
            [
              121.445789,
              31.25005
            ],
            [
              121.445875,
              31.252875
            ],
            [
              121.443601,
              31.252215
            ],
            [
              121.438923,
              31.251444
            ],
            [
              121.437507,
              31.251958
            ],
            [
              121.437035,
              31.254416
            ],
            [
              121.435447,
              31.255113
            ],
            [
              121.433086,
              31.24961
            ],
            [
              121.429868,
              31.251444
            ],
            [
              121.429181,
              31.251078
            ],
            [
              121.429396,
              31.247886
            ],
            [
              121.428709,
              31.246932
            ],
            [
              121.428709,
              31.244914
            ],
            [
              121.433043,
              31.242199
            ],
            [
              121.43755,
              31.236364
            ],
            [
              121.43712,
              31.233722
            ],
            [
              121.438236,
              31.226566
            ],
            [
              121.440339,
              31.225025
            ],
            [
              121.44094,
              31.223043
            ],
            [
              121.444631,
              31.223758
            ],
            [
              121.452227,
              31.226088
            ],
            [
              121.46199,
              31.225795
            ],
            [
              121.47126,
              31.229226
            ],
            [
              121.473835,
              31.230841
            ],
            [
              121.478534,
              31.233006
            ],
            [
              121.482289,
              31.232969
            ],
            [
              121.483855,
              31.233758
            ],
            [
              121.487439,
              31.235134
            ],
            [
              121.486323,
              31.237849
            ],
            [
              121.48584,
              31.241206
            ],
            [
              121.486838,
              31.244206
            ],
            [
              121.488265,
              31.24549
            ],
            [
              121.49128,
              31.247352
            ],
            [
              121.497245,
              31.249627
            ],
            [
              121.505313,
              31.251334
            ],
            [
              121.515956,
              31.250821
            ],
            [
              121.520762,
              31.251004
            ],
            [
              121.527715,
              31.252141
            ],
            [
              121.53059,
              31.253352
            ],
            [
              121.52926,
              31.25493
            ],
            [
              121.5272,
              31.255663
            ],
            [
              121.525912,
              31.257314
            ],
            [
              121.497717,
              31.260068
            ],
            [
              121.49334,
              31.257647
            ],
            [
              121.492224,
              31.256913
            ],
            [
              121.490593,
              31.255446
            ],
            [
              121.487417,
              31.256033
            ],
            [
              121.483641,
              31.253538
            ],
            [
              121.478491,
              31.250016
            ],
            [
              121.470938,
              31.247814
            ],
            [
              121.466303,
              31.246787
            ],
            [
              121.467762,
              31.242311
            ],
            [
              121.467762,
              31.242088
            ]
          ]
        ]
      }
    }
  ]
}